[{"OBJECT_NAME":"COSMOS 1812","OBJECT_ID":"1987-003A","EPOCH":"2026-03-02T22:33:20.440224","MEAN_MOTION":16.21806434,"ECCENTRICITY":0.00073655,"INCLINATION":82.4723,"RA_OF_ASC_NODE":203.3427,"ARG_OF_PERICENTER":288.5135,"MEAN_ANOMALY":71.5354,"EPHEMERIS_TYPE":0,"CLASSIFICATION_TYPE":"U","NORAD_CAT_ID":17295,"ELEMENT_SET_NO":999,"REV_AT_EPOCH":14339,"BSTAR":0.00076311055,"MEAN_MOTION_DOT":0.01654639,"MEAN_MOTION_DDOT":-1.211554e-6},{"OBJECT_NAME":"IRIDIUM 51","OBJECT_ID":"1998-018A","EPOCH":"2026-03-02T22:34:35.920992","MEAN_MOTION":15.98419692,"ECCENTRICITY":0.0018268,"INCLINATION":86.3541,"RA_OF_ASC_NODE":284.1966,"ARG_OF_PERICENTER":311.9553,"MEAN_ANOMALY":48.0174,"EPHEMERIS_TYPE":0,"CLASSIFICATION_TYPE":"U","NORAD_CAT_ID":25262,"ELEMENT_SET_NO":999,"REV_AT_EPOCH":48727,"BSTAR":0.0013107887,"MEAN_MOTION_DOT":0.00616917,"MEAN_MOTION_DDOT":0.00016416778},{"OBJECT_NAME":"CZ-2D DEB","OBJECT_ID":"2005-024J","EPOCH":"2026-03-01T21:43:49.210752","MEAN_MOTION":15.92111318,"ECCENTRICITY":0.0004089,"INCLINATION":97.1482,"RA_OF_ASC_NODE":103.0739,"ARG_OF_PERICENTER":145.2826,"MEAN_ANOMALY":214.8716,"EPHEMERIS_TYPE":0,"CLASSIFICATION_TYPE":"U","NORAD_CAT_ID":31409,"ELEMENT_SET_NO":999,"REV_AT_EPOCH":11718,"BSTAR":0.00072484,"MEAN_MOTION_DOT":0.0023946,"MEAN_MOTION_DDOT":2.3346e-5},{"OBJECT_NAME":"ZIYUAN 3-01 (ZY 3-01)","OBJECT_ID":"2012-001A","EPOCH":"2026-03-02T22:23:02.353632","MEAN_MOTION":15.96890074,"ECCENTRICITY":0.00016049,"INCLINATION":97.1547,"RA_OF_ASC_NODE":136.4272,"ARG_OF_PERICENTER":245.6421,"MEAN_ANOMALY":114.4688,"EPHEMERIS_TYPE":0,"CLASSIFICATION_TYPE":"U","NORAD_CAT_ID":38046,"ELEMENT_SET_NO":999,"REV_AT_EPOCH":78762,"BSTAR":0.00095462486,"MEAN_MOTION_DOT":0.00406129,"MEAN_MOTION_DDOT":6.9230525e-5},{"OBJECT_NAME":"HUMSAT-D","OBJECT_ID":"2013-066T","EPOCH":"2026-03-02T13:30:41.287968","MEAN_MOTION":15.97804823,"ECCENTRICITY":0.0006834,"INCLINATION":97.4841,"RA_OF_ASC_NODE":73.9995,"ARG_OF_PERICENTER":161.4567,"MEAN_ANOMALY":198.696,"EPHEMERIS_TYPE":0,"CLASSIFICATION_TYPE":"U","NORAD_CAT_ID":39433,"ELEMENT_SET_NO":999,"REV_AT_EPOCH":67032,"BSTAR":0.0019629,"MEAN_MOTION_DOT":0.0087716,"MEAN_MOTION_DDOT":0.00035625},{"OBJECT_NAME":"H-2A DEB","OBJECT_ID":"2018-084E","EPOCH":"2026-03-02T22:13:29.989056","MEAN_MOTION":15.97396728,"ECCENTRICITY":0.00032532,"INCLINATION":98.0076,"RA_OF_ASC_NODE":277.6362,"ARG_OF_PERICENTER":302.7137,"MEAN_ANOMALY":57.3824,"EPHEMERIS_TYPE":0,"CLASSIFICATION_TYPE":"U","NORAD_CAT_ID":43675,"ELEMENT_SET_NO":999,"REV_AT_EPOCH":40204,"BSTAR":0.0023734564,"MEAN_MOTION_DOT":0.01033094,"MEAN_MOTION_DDOT":0.00051028756},{"OBJECT_NAME":"SPACEBEE-7","OBJECT_ID":"2018-099BL","EPOCH":"2026-03-02T18:08:26.549376","MEAN_MOTION":16.03076494,"ECCENTRICITY":0.00078214,"INCLINATION":97.4408,"RA_OF_ASC_NODE":148.0919,"ARG_OF_PERICENTER":270.3555,"MEAN_ANOMALY":89.6828,"EPHEMERIS_TYPE":0,"CLASSIFICATION_TYPE":"U","NORAD_CAT_ID":43816,"ELEMENT_SET_NO":999,"REV_AT_EPOCH":39810,"BSTAR":0.0019892206,"MEAN_MOTION_DOT":0.01193306,"MEAN_MOTION_DDOT":0.00078424326},{"OBJECT_NAME":"STARLINK-1112","OBJECT_ID":"2020-001M","EPOCH":"2026-03-03T00:25:00.620256","MEAN_MOTION":16.05219074,"ECCENTRICITY":0.0004134,"INCLINATION":53.0345,"RA_OF_ASC_NODE":275.7139,"ARG_OF_PERICENTER":260.1442,"MEAN_ANOMALY":99.9123,"EPHEMERIS_TYPE":0,"CLASSIFICATION_TYPE":"U","NORAD_CAT_ID":44925,"ELEMENT_SET_NO":999,"REV_AT_EPOCH":34025,"BSTAR":0.00097397,"MEAN_MOTION_DOT":0.00693267,"MEAN_MOTION_DDOT":0.0002476},{"OBJECT_NAME":"STARLINK-1210","OBJECT_ID":"2020-012AF","EPOCH":"2026-03-02T22:13:10.866144","MEAN_MOTION":16.27375304,"ECCENTRICITY":0.00066352,"INCLINATION":53.0007,"RA_OF_ASC_NODE":293.3318,"ARG_OF_PERICENTER":252.6321,"MEAN_ANOMALY":107.3994,"EPHEMERIS_TYPE":0,"CLASSIFICATION_TYPE":"U","NORAD_CAT_ID":45207,"ELEMENT_SET_NO":999,"REV_AT_EPOCH":33583,"BSTAR":0.00086751634,"MEAN_MOTION_DOT":0.03202188,"MEAN_MOTION_DDOT":1.2006408e-5},{"OBJECT_NAME":"STARLINK-1294","OBJECT_ID":"2020-025W","EPOCH":"2026-03-03T02:18:05.849856","MEAN_MOTION":16.45728679,"ECCENTRICITY":0.0003065,"INCLINATION":53.015,"RA_OF_ASC_NODE":7.4359,"ARG_OF_PERICENTER":236.3782,"MEAN_ANOMALY":123.6975,"EPHEMERIS_TYPE":0,"CLASSIFICATION_TYPE":"U","NORAD_CAT_ID":45551,"ELEMENT_SET_NO":999,"REV_AT_EPOCH":32590,"BSTAR":0.00033071,"MEAN_MOTION_DOT":0.12534528,"MEAN_MOTION_DDOT":1.2493e-5},{"OBJECT_NAME":"STARLINK-1484","OBJECT_ID":"2020-038AC","EPOCH":"2026-03-03T00:00:02.000160","MEAN_MOTION":15.97036987,"ECCENTRICITY":0.00069132,"INCLINATION":52.9989,"RA_OF_ASC_NODE":91.1702,"ARG_OF_PERICENTER":33.4011,"MEAN_ANOMALY":186.0862,"EPHEMERIS_TYPE":0,"CLASSIFICATION_TYPE":"U","NORAD_CAT_ID":45756,"ELEMENT_SET_NO":999,"REV_AT_EPOCH":602,"BSTAR":0.00097351469,"MEAN_MOTION_DOT":0.00430883,"MEAN_MOTION_DDOT":8.7439371e-5},{"OBJECT_NAME":"STARLINK-1601","OBJECT_ID":"2020-057D","EPOCH":"2026-03-02T22:04:58.043136","MEAN_MOTION":16.22757357,"ECCENTRICITY":0.00067563,"INCLINATION":53.0307,"RA_OF_ASC_NODE":289.3063,"ARG_OF_PERICENTER":251.0894,"MEAN_ANOMALY":108.9413,"EPHEMERIS_TYPE":0,"CLASSIFICATION_TYPE":"U","NORAD_CAT_ID":46120,"ELEMENT_SET_NO":999,"REV_AT_EPOCH":30713,"BSTAR":0.0011059624,"MEAN_MOTION_DOT":0.02747533,"MEAN_MOTION_DDOT":1.1880774e-5},{"OBJECT_NAME":"STARLINK-1710","OBJECT_ID":"2020-062F","EPOCH":"2026-03-03T00:21:35.570592","MEAN_MOTION":16.33819389,"ECCENTRICITY":0.0006436,"INCLINATION":53.0177,"RA_OF_ASC_NODE":310.7119,"ARG_OF_PERICENTER":242.9176,"MEAN_ANOMALY":117.1211,"EPHEMERIS_TYPE":0,"CLASSIFICATION_TYPE":"U","NORAD_CAT_ID":46330,"ELEMENT_SET_NO":999,"REV_AT_EPOCH":30465,"BSTAR":0.0009669,"MEAN_MOTION_DOT":0.06650806,"MEAN_MOTION_DDOT":1.2154e-5},{"OBJECT_NAME":"STARLINK-1723","OBJECT_ID":"2020-062J","EPOCH":"2026-03-03T05:07:36.818112","MEAN_MOTION":16.1539989,"ECCENTRICITY":0.0006073,"INCLINATION":53.0369,"RA_OF_ASC_NODE":355.4817,"ARG_OF_PERICENTER":197.2611,"MEAN_ANOMALY":162.8219,"EPHEMERIS_TYPE":0,"CLASSIFICATION_TYPE":"U","NORAD_CAT_ID":46333,"ELEMENT_SET_NO":999,"REV_AT_EPOCH":30403,"BSTAR":0.0013241,"MEAN_MOTION_DOT":0.01772112,"MEAN_MOTION_DDOT":0.0028605},{"OBJECT_NAME":"STARLINK-1738","OBJECT_ID":"2020-062M","EPOCH":"2026-03-03T00:00:02.000160","MEAN_MOTION":15.99100441,"ECCENTRICITY":0.00053384,"INCLINATION":53.029,"RA_OF_ASC_NODE":314.9763,"ARG_OF_PERICENTER":132.1101,"MEAN_ANOMALY":176.2007,"EPHEMERIS_TYPE":0,"CLASSIFICATION_TYPE":"U","NORAD_CAT_ID":46336,"ELEMENT_SET_NO":999,"REV_AT_EPOCH":600,"BSTAR":0.001409834,"MEAN_MOTION_DOT":0.00700261,"MEAN_MOTION_DDOT":0.0002305385},{"OBJECT_NAME":"STARLINK-1750","OBJECT_ID":"2020-062N","EPOCH":"2026-03-03T03:52:36.202368","MEAN_MOTION":16.43407008,"ECCENTRICITY":0.0005978,"INCLINATION":53.0217,"RA_OF_ASC_NODE":323.3082,"ARG_OF_PERICENTER":245.5839,"MEAN_ANOMALY":114.4585,"EPHEMERIS_TYPE":0,"CLASSIFICATION_TYPE":"U","NORAD_CAT_ID":46337,"ELEMENT_SET_NO":999,"REV_AT_EPOCH":30448,"BSTAR":0.00049361,"MEAN_MOTION_DOT":0.11935114,"MEAN_MOTION_DDOT":1.2416e-5}]
